{
    "schools": [
        {
            "id": 1,
            "name": "Fire Lake Elementary",
            "statecode": "AK",
            "city": "Eagle River",
            "zipcode": 99577,
            "enrollment2023": 229,
            "enrollment2020": 403,
            "enrollment_change": -174,
            "charter": false
            
        },
        {
            "id": 2,
            "name": "Woodriver Elementary",
            "statecode": "AK",
            "city": "Fairbanks",
            "zipcode": 99709,
            "enrollment2023": 341,
            "enrollment2020": 479,
            "enrollment_change": -138,
            "charter": false

        },
        {
            "id": 3,
            "name": "Fred Ipalook Elementary",
            "statecode": "AK",
            "city": "Utqiagvik",
            "zipcode": 99723,
            "enrollment2023": 539,
            "enrollment2020": 664,
            "enrollment_change": -125,
            "charter": false

        },
        {
            "id": 4,
            "name": "Birchwood ABC Elementary",
            "statecode": "AK",
            "city": "Eagle River",
            "zipcode": 99567,
            "enrollment2023": 205,
            "enrollment2020": 321,
            "enrollment_change": -116,
            "charter": false

        },
        {
            "id": 5,
            "name": "Mirror Lake Middle School",
            "statecode": "AK",
            "city": "Chugiak",
            "zipcode": 99567,
            "enrollment2023": 563,
            "enrollment2020": 677,
            "enrollment_change": -114,
            "charter": false

        },
        {
            "id": 6,
            "name": "Mat-Su Central School",
            "statecode": "AK",
            "city": "Wasilla",
            "zipcode": 99654,
            "enrollment2023": 2254,
            "enrollment2020": 1786,
            "enrollment_change": 468,
            "charter": false

        },
        {
            "id": 7,
            "name": "Fairbanks B.E.S.T.",
            "statecode": "AK",
            "city": "Fairbanks",
            "zipcode": 99701,
            "enrollment2023": 801,
            "enrollment2020": 274,
            "enrollment_change": 527,
            "charter": false

        },
        {
            "id": 8,
            "name": "Family Partnership Charter School",
            "statecode": "AK",
            "city": "Anchorage",
            "zipcode": 99503,
            "enrollment2023": 1740,
            "enrollment2020": 694,
            "enrollment_change": 1046,
            "charter": true

        },
        {
            "id": 9,
            "name": "Raven School",
            "statecode": "AK",
            "city": "Fairbanks",
            "zipcode": 99709,
            "enrollment2023": 2771,
            "enrollment2020": 1671,
            "enrollment_change": 1100,
            "charter": false

        },
        {
            "id": 10,
            "name": "Interior Distance Education of Alaska (IDEA)",
            "statecode": "AK",
            "city": "Fairbanks",
            "zipcode": 99701,
            "enrollment2023": 6899,
            "enrollment2020": 5027,
            "enrollment_change": 1872,
            "charter": true

        },
        {
            "id": 11,
            "name": "Central High School",
            "statecode": "AL",
            "city": "Florence",
            "zipcode": 35633,
            "enrollment2023": 603,
            "enrollment2020": 1310,
            "enrollment_change": -707,
            "charter": false

        },
        {
            "id": 12,
            "name": "Lauderdale County High School",
            "statecode": "AL",
            "city": "Rogersville",
            "zipcode": 35652,
            "enrollment2023": 543,
            "enrollment2020": 1202,
            "enrollment_change": -659,
            "charter": true

        },
        {
            "id": 13,
            "name": "Rogers High School",
            "statecode": "AL",
            "city": "Florence",
            "zipcode": 35634,
            "enrollment2023": 555,
            "enrollment2020": 1197,
            "enrollment_change": -642,
            "charter": false

        },
        {
            "id": 14,
            "name": "Wilson High School",
            "statecode": "AL",
            "city": "Florence",
            "zipcode": 35634,
            "enrollment2023": 671,
            "enrollment2020": 1267,
            "enrollment_change": -596,
            "charter": false

        },
        {
            "id": 15,
            "name": "Wicksburg High School",
            "statecode": "AL",
            "city": "Newton",
            "zipcode": 36352,
            "enrollment2023": 471,
            "enrollment2020": 1016,
            "enrollment_change": -545,
            "charter": false

        },
        {
            "id": 16,
            "name": "Hueytown Primary School",
            "statecode": "AL",
            "city": "Hueytown",
            "zipcode": 35023,
            "enrollment2023": 653,
            "enrollment2020": 328,
            "enrollment_change": 325,
            "charter": false

        },
        {
            "id": 17,
            "name": "Florence B Mathis Elementary",
            "statecode": "AL",
            "city": "Foley",
            "zipcode": 36535,
            "enrollment2023": 915,
            "enrollment2020": 549,
            "enrollment_change": 366,
            "charter": false

        },
        {
            "id": 18,
            "name": "McCalla Elementary School",
            "statecode": "AL",
            "city": "Bessemer",
            "zipcode": 35022,
            "enrollment2023": 697,
            "enrollment2020": 260,
            "enrollment_change": 437,
            "charter": false

        },
        {
            "id": 19,
            "name": "MidTown Elementary School",
            "statecode": "AL",
            "city": "Madison",
            "zipcode": 35758,
            "enrollment2023": 999,
            "enrollment2020": 486,
            "enrollment_change": 513,
            "charter": false

        },
        {
            "id": 20,
            "name": "Alabama Virtual Academy at Eufaula City Schools",
            "statecode": "AL",
            "city": "Eufaula",
            "zipcode": 36027,
            "enrollment2023": 3901,
            "enrollment2020": 3024,
            "enrollment_change": 877,
            "charter": false

        },
        {
            "id": 21,
            "name": "SYLVAN HILLS HIGH SCHOOL",
            "statecode": "AR",
            "city": "SHERWOOD",
            "zipcode": 72120,
            "enrollment2023": 1017,
            "enrollment2020": 1428,
            "enrollment_change": -411,
            "charter": false

        },
        {
            "id": 22,
            "name": "CLARKSVILLE ELEMENTARY SCHOOL",
            "statecode": "AR",
            "city": "CLARKSVILLE",
            "zipcode": 72830,
            "enrollment2023": 374,
            "enrollment2020": 773,
            "enrollment_change": -399,
            "charter": false

        },
        {
            "id": 23,
            "name": "PINE BLUFF HIGH SCHOOL",
            "statecode": "AR",
            "city": "PINE BLUFF",
            "zipcode": 71601,
            "enrollment2023": 583,
            "enrollment2020": 903,
            "enrollment_change": -320,
            "charter": false

        },
        {
            "id": 24,
            "name": "LAKESIDE MIDDLE SCHOOL",
            "statecode": "AR",
            "city": "HOT SPRINGS",
            "zipcode": 71901,
            "enrollment2023": 553,
            "enrollment2020": 831,
            "enrollment_change": -278,
            "charter": false

        },
        {
            "id": 25,
            "name": "WILLOWBROOK ELEMENTARY SCHOOL",
            "statecode": "AR",
            "city": "BENTONVILLE",
            "zipcode": 72713,
            "enrollment2023": 597,
            "enrollment2020": 857,
            "enrollment_change": -260,
            "charter": false


        },
        {
            "id": 26,
            "name": "ARKANSAS VIRTUAL ACADEMY JR",
            "statecode": "AR",
            "city": "LITTLE ROCK",
            "zipcode": 72211,
            "enrollment2023": 997,
            "enrollment2020": 697,
            "enrollment_change": 300,
            "charter": true

        },
        {
            "id": 27,
            "name": "HOT SPRINGS JUNIOR ACADEMY",
            "statecode": "AR",
            "city": "HOT SPRINGS",
            "zipcode": 71913,
            "enrollment2023": 815,
            "enrollment2020": 478,
            "enrollment_change": 337,
            "charter": true

        },
        {
            "id": 28,
            "name": "ARKANSAS VIRTUAL ACADEMY",
            "statecode": "AR",
            "city": "LITTLE ROCK",
            "zipcode": 72211,
            "enrollment2023": 1041,
            "enrollment2020": 669,
            "enrollment_change": 372,
            "charter": true

        },
        {
            "id": 29,
            "name": "NORTHSIDE HIGH SCHOOL",
            "statecode": "AR",
            "city": "FORT SMITH",
            "zipcode": 72901,
            "enrollment2023": 2433,
            "enrollment2020": 1820,
            "enrollment_change": 613,
            "charter": false

        },
        {
            "id": 30,
            "name": "SOUTHSIDE HIGH SCHOOL",
            "statecode": "AR",
            "city": "FORT SMITH",
            "zipcode": 72903,
            "enrollment2023": 1956,
            "enrollment2020": 1342,
            "enrollment_change": 614,
            "charter": false

        },
        {
            "id": 31,
            "name": "Perry High School",
            "statecode": "AZ",
            "city": "GILBERT",
            "zipcode": 85297,
            "enrollment2023": 2822,
            "enrollment2020": 3573,
            "enrollment_change": -751,
            "charter": false

        },
        {
            "id": 32,
            "name": "Marc T. Atkinson Middle School & Gifted Academy",
            "statecode": "AZ",
            "city": "PHOENIX",
            "zipcode": 85031,
            "enrollment2023": 184,
            "enrollment2020": 912,
            "enrollment_change": -728,
            "charter": false

        },
        {
            "id": 33,
            "name": "Newell Barney Junior High",
            "statecode": "AZ",
            "city": "QUEEN CREEK",
            "zipcode": 85142,
            "enrollment2023": 241,
            "enrollment2020": 901,
            "enrollment_change": -660,
            "charter": false

        },
        {
            "id": 34,
            "name": "Mountain Pointe High School",
            "statecode": "AZ",
            "city": "PHOENIX",
            "zipcode": 85044,
            "enrollment2023": 1716,
            "enrollment2020": 2314,
            "enrollment_change": -598,
            "charter": false

        },
        {
            "id": 35,
            "name": "Tonalea Middle School",
            "statecode": "AZ",
            "city": "SCOTTSDALE",
            "zipcode": 85257,
            "enrollment2023": 442,
            "enrollment2020": 920,
            "enrollment_change": -478,
            "charter": false

        },
        {
            "id": 36,
            "name": "Arizona College Prep High School",
            "statecode": "AZ",
            "city": "CHANDLER",
            "zipcode": 85249,
            "enrollment2023": 1775,
            "enrollment2020": 815,
            "enrollment_change": 960,
            "charter": false

        },
        {
            "id": 37,
            "name": "Arizona Virtual Academy",
            "statecode": "AZ",
            "city": "PHOENIX",
            "zipcode": 85004,
            "enrollment2023": 5122,
            "enrollment2020": 3910,
            "enrollment_change": 1212,
            "charter": true

        },
        {
            "id": 38,
            "name": "Primavera - Online",
            "statecode": "AZ",
            "city": "Chandler",
            "zipcode": 85225,
            "enrollment2023": 6392,
            "enrollment2020": 4785,
            "enrollment_change": 1607,
            "charter": true

        },
        {
            "id": 39,
            "name": "West Point High School",
            "statecode": "AZ",
            "city": "AVONDALE",
            "zipcode": 85392,
            "enrollment2023": 3033,
            "enrollment2020": 1118,
            "enrollment_change": 1915,
            "charter": false

        },
        {
            "id": 40,
            "name": "Sequoia Choice School Arizona Distance Learning School",
            "statecode": "AZ",
            "city": "Mesa",
            "zipcode": 85204,
            "enrollment2023": 3083,
            "enrollment2020": 1090,
            "enrollment_change": 1993,
            "charter": true

        },
        {
            "id": 41,
            "name": "Opportunities for Learning - Baldwin Park",
            "statecode": "CA",
            "city": "Irwindale",
            "zipcode": 91706,
            "enrollment2023": 480,
            "enrollment2020": 3185,
            "enrollment_change": -2705,
            "charter": true

        },
        {
            "id": 42,
            "name": "Central East High",
            "statecode": "CA",
            "city": "Fresno",
            "zipcode": 93722,
            "enrollment2023": 2061,
            "enrollment2020": 4252,
            "enrollment_change": -2191,
            "charter": false

        },
        {
            "id": 43,
            "name": "Madera South High",
            "statecode": "CA",
            "city": "Madera",
            "zipcode": 93637,
            "enrollment2023": 1994,
            "enrollment2020": 3405,
            "enrollment_change": -1411,
            "charter": false

        },
        {
            "id": 44,
            "name": "Alpine Vista",
            "statecode": "CA",
            "city": "Tulare",
            "zipcode": 93274,
            "enrollment2023": 625,
            "enrollment2020": 1398,
            "enrollment_change": -773,
            "charter": false

        },
        {
            "id": 45,
            "name": "Oakmont High",
            "statecode": "CA",
            "city": "Roseville",
            "zipcode": 95661,
            "enrollment2023": 1380,
            "enrollment2020": 2131,
            "enrollment_change": -751,
            "charter": false

        },
        {
            "id": 46,
            "name": "Riverside Virtual",
            "statecode": "CA",
            "city": "Riverside",
            "zipcode": 92501,
            "enrollment2023": 1200,
            "enrollment2020": 98,
            "enrollment_change": 1102,
            "charter": false

        },
        {
            "id": 47,
            "name": "San Diego High",
            "statecode": "CA",
            "city": "San Diego",
            "zipcode": 92101,
            "enrollment2023": 2105,
            "enrollment2020": 847,
            "enrollment_change": 1258,
            "charter": false

        },
        {
            "id": 48,
            "name": "J. E. Young Academic Center",
            "statecode": "CA",
            "city": "Fresno",
            "zipcode": 93701,
            "enrollment2023": 1820,
            "enrollment2020": 321,
            "enrollment_change": 1499,
            "charter": false

        },
        {
            "id": 49,
            "name": "California Virtual Academy @ Los Angeles",
            "statecode": "CA",
            "city": "Simi Valley",
            "zipcode": 93065,
            "enrollment2023": 5407,
            "enrollment2020": 3684,
            "enrollment_change": 1723,
            "charter": true

        },
        {
            "id": 50,
            "name": "Highlands Community Charter",
            "statecode": "CA",
            "city": "Sacramento",
            "zipcode": 95838,
            "enrollment2023": 6749,
            "enrollment2020": 3336,
            "enrollment_change": 3413,
            "charter": true

        },
        {
            "id": 51,
            "name": "Jefferson Academy",
            "statecode": "CO",
            "city": "BROOMFIELD",
            "zipcode": 80020,
            "enrollment2023": 317,
            "enrollment2020": 1051,
            "enrollment_change": -734,
            "charter": true

        },
        {
            "id": 52,
            "name": "Alamosa Elementary School 3-5",
            "statecode": "CO",
            "city": "ALAMOSA",
            "zipcode": 81101,
            "enrollment2023": 504,
            "enrollment2020": 1142,
            "enrollment_change": -638,
            "charter": false

        },
        {
            "id": 53,
            "name": "South Middle School",
            "statecode": "CO",
            "city": "AURORA",
            "zipcode": 80011,
            "enrollment2023": 139,
            "enrollment2020": 760,
            "enrollment_change": -621,
            "charter": false

        },
        {
            "id": 54,
            "name": "Preston Middle School",
            "statecode": "CO",
            "city": "FORT COLLINS",
            "zipcode": 80528,
            "enrollment2023": 545,
            "enrollment2020": 1132,
            "enrollment_change": -587,
            "charter": false

        },
        {
            "id": 55,
            "name": "Union Colony Preparatory School",
            "statecode": "CO",
            "city": "GREELEY",
            "zipcode": 80634,
            "enrollment2023": 364,
            "enrollment2020": 864,
            "enrollment_change": -500,
            "charter": true

        },
        {
            "id": 56,
            "name": "Vista Peak 9-12 Preparatory",
            "statecode": "CO",
            "city": "AURORA",
            "zipcode": 80018,
            "enrollment2023": 1795,
            "enrollment2020": 1407,
            "enrollment_change": 388,
            "charter": false

        },
        {
            "id": 57,
            "name": "Denver Online",
            "statecode": "CO",
            "city": "DENVER",
            "zipcode": 80211,
            "enrollment2023": 799,
            "enrollment2020": 287,
            "enrollment_change": 512,
            "charter": false

        },
        {
            "id": 58,
            "name": "GOAL Academy",
            "statecode": "CO",
            "city": "PUEBLO",
            "zipcode": 81003,
            "enrollment2023": 5690,
            "enrollment2020": 4965,
            "enrollment_change": 725,
            "charter": true

        },
        {
            "id": 59,
            "name": "HOPE Online Learning Academy High School",
            "statecode": "CO",
            "city": "ENGLEWOOD",
            "zipcode": 80112,
            "enrollment2023": 1361,
            "enrollment2020": 590,
            "enrollment_change": 771,
            "charter": true

        },
        {
            "id": 60,
            "name": "Astravo Online Academy High School",
            "statecode": "CO",
            "city": "LAKEWOOD",
            "zipcode": 80228,
            "enrollment2023": 2134,
            "enrollment2020": 485,
            "enrollment_change": 1649,
            "charter": true

        },
        {
            "id": 61,
            "name": "Bedford Middle School",
            "statecode": "CT",
            "city": "Westport",
            "zipcode": 6880,
            "enrollment2023": 729,
            "enrollment2020": 1259,
            "enrollment_change": -530,
            "charter": false

        },
        {
            "id": 62,
            "name": "Burr Middle School",
            "statecode": "CT",
            "city": "Hartford",
            "zipcode": 6114,
            "enrollment2023": 277,
            "enrollment2020": 579,
            "enrollment_change": -302,
            "charter": false

        },
        {
            "id": 63,
            "name": "Kinsella Magnet School of Performing Arts: PK-8 Campus",
            "statecode": "CT",
            "city": "Hartford",
            "zipcode": 6106,
            "enrollment2023": 465,
            "enrollment2020": 711,
            "enrollment_change": -246,
            "charter": false

        },
        {
            "id": 64,
            "name": "East Hartford Middle School",
            "statecode": "CT",
            "city": "East Hartford",
            "zipcode": 6108,
            "enrollment2023": 890,
            "enrollment2020": 1133,
            "enrollment_change": -243,
            "charter": false

        },
        {
            "id": 65,
            "name": "North End Middle School",
            "statecode": "CT",
            "city": "Waterbury",
            "zipcode": 6704,
            "enrollment2023": 692,
            "enrollment2020": 900,
            "enrollment_change": -208,
            "charter": false

        },
        {
            "id": 66,
            "name": "Crosby High School",
            "statecode": "CT",
            "city": "Waterbury",
            "zipcode": 6705,
            "enrollment2023": 1400,
            "enrollment2020": 1138,
            "enrollment_change": 262,
            "charter": false

        },
        {
            "id": 67,
            "name": "Danbury High School",
            "statecode": "CT",
            "city": "Danbury",
            "zipcode": 6811,
            "enrollment2023": 3590,
            "enrollment2020": 3292,
            "enrollment_change": 298,
            "charter": false

        },
        {
            "id": 68,
            "name": "Beman Middle School",
            "statecode": "CT",
            "city": "Middletown",
            "zipcode": 6457,
            "enrollment2023": 968,
            "enrollment2020": 618,
            "enrollment_change": 350,
            "charter": false

        },
        {
            "id": 69,
            "name": "Waterbury Arts Magnet School",
            "statecode": "CT",
            "city": "Waterbury",
            "zipcode": 6706,
            "enrollment2023": 821,
            "enrollment2020": 455,
            "enrollment_change": 366,
            "charter": false

        },
        {
            "id": 70,
            "name": "Ana Grace Academy of the Arts",
            "statecode": "CT",
            "city": "Bloomfield",
            "zipcode": 6002,
            "enrollment2023": 863,
            "enrollment2020": 478,
            "enrollment_change": 385,
            "charter": false

        },
        {
            "id": 71,
            "name": "Middletown High School",
            "statecode": "DE",
            "city": "Middletown",
            "zipcode": 19709,
            "enrollment2023": 1355,
            "enrollment2020": 1776,
            "enrollment_change": -421,
            "charter": false

        },
        {
            "id": 72,
            "name": "F. Niel Postlethwait Middle School",
            "statecode": "DE",
            "city": "Camden",
            "zipcode": 19934,
            "enrollment2023": 629,
            "enrollment2020": 968,
            "enrollment_change": -339,
            "charter": false

        },
        {
            "id": 73,
            "name": "Redding (Louis L.) Middle School",
            "statecode": "DE",
            "city": "Middletown",
            "zipcode": 19709,
            "enrollment2023": 618,
            "enrollment2020": 903,
            "enrollment_change": -285,
            "charter": false

        },
        {
            "id": 74,
            "name": "Star Hill Elementary School",
            "statecode": "DE",
            "city": "Dover",
            "zipcode": 19901,
            "enrollment2023": 147,
            "enrollment2020": 428,
            "enrollment_change": -281,
            "charter": false

        },
        {
            "id": 75,
            "name": "Marshall (Thurgood) Elementary School",
            "statecode": "DE",
            "city": "Newark",
            "zipcode": 19702,
            "enrollment2023": 556,
            "enrollment2020": 787,
            "enrollment_change": -231,
            "charter": false

        },
        {
            "id": 76,
            "name": "Newark Charter School",
            "statecode": "DE",
            "city": "Newark",
            "zipcode": 19711,
            "enrollment2023": 2987,
            "enrollment2020": 2412,
            "enrollment_change": 575,
            "charter": true

        },
        {
            "id": 77,
            "name": "Las Americas ASPIRA Academy",
            "statecode": "DE",
            "city": "Newark",
            "zipcode": 19711,
            "enrollment2023": 1341,
            "enrollment2020": 946,
            "enrollment_change": 395,
            "charter": true

        },
        {
            "id": 78,
            "name": "Cape Henlopen High School",
            "statecode": "DE",
            "city": "Lewes",
            "zipcode": 19958,
            "enrollment2023": 1813,
            "enrollment2020": 1506,
            "enrollment_change": 307,
            "charter": false

        },
        {
            "id": 79,
            "name": "Sussex Academy",
            "statecode": "DE",
            "city": "Georgetown",
            "zipcode": 19947,
            "enrollment2023": 1118,
            "enrollment2020": 858,
            "enrollment_change": 260,
            "charter": true

        },
        {
            "id": 80,
            "name": "Sussex Central High School",
            "statecode": "DE",
            "city": "Georgetown",
            "zipcode": 19947,
            "enrollment2023": 2039,
            "enrollment2020": 1803,
            "enrollment_change": 236,
            "charter": false

        },
        {
            "id": 81,
            "name": "FREEDOM HIGH",
            "statecode": "FL",
            "city": "ORLANDO",
            "zipcode": 32837,
            "enrollment2023": 2623,
            "enrollment2020": 3829,
            "enrollment_change": -1206,
            "charter": false

        },
        {
            "id": 82,
            "name": "LENNARD HIGH SCHOOL",
            "statecode": "FL",
            "city": "RUSKIN",
            "zipcode": 33570,
            "enrollment2023": 2404,
            "enrollment2020": 3320,
            "enrollment_change": -916,
            "charter": false

        },
        {
            "id": 83,
            "name": "WINDERMERE HIGH",
            "statecode": "FL",
            "city": "WINDERMERE",
            "zipcode": 34786,
            "enrollment2023": 3079,
            "enrollment2020": 3956,
            "enrollment_change": -877,
            "charter": false

        },
        {
            "id": 84,
            "name": "RONALD W. REAGAN/DORAL SENIOR HIGH SCHOOL",
            "statecode": "FL",
            "city": "DORAL",
            "zipcode": 33178,
            "enrollment2023": 1591,
            "enrollment2020": 2445,
            "enrollment_change": -854,
            "charter": false

        },
        {
            "id": 85,
            "name": "ALLEN D NEASE SENIOR HIGH SCHOOL",
            "statecode": "FL",
            "city": "PONTE VEDRA",
            "zipcode": 32081,
            "enrollment2023": 2214,
            "enrollment2020": 2901,
            "enrollment_change": -687,
            "charter": false

        },
        {
            "id": 86,
            "name": "DIGITAL ACADEMY OF FLORIDA",
            "statecode": "FL",
            "city": "LABELLE",
            "zipcode": 33935,
            "enrollment2023": 6396,
            "enrollment2020": 1680,
            "enrollment_change": 4716,
            "charter": false

        },
        {
            "id": 87,
            "name": "DUVAL VIRTUAL INSTRUCTION ACADEMY",
            "statecode": "FL",
            "city": "JACKSONVILLE",
            "zipcode": 32217,
            "enrollment2023": 1877,
            "enrollment2020": 196,
            "enrollment_change": 1681,
            "charter": false

        },
        {
            "id": 88,
            "name": "FLORIDA VIRTUAL ELEMENTARY SCHOOL",
            "statecode": "FL",
            "city": "ORLANDO",
            "zipcode": 32835,
            "enrollment2023": 2600,
            "enrollment2020": 1021,
            "enrollment_change": 1579,
            "charter": false

        },
        {
            "id": 89,
            "name": "OCVS VIRTUAL FRANCHISE",
            "statecode": "FL",
            "city": "ORLANDO",
            "zipcode": 32804,
            "enrollment2023": 1270,
            "enrollment2020": 271,
            "enrollment_change": 999,
            "charter": false

        },
        {
            "id": 90,
            "name": "FLORIDA VIRTUAL HIGH SCHOOL",
            "statecode": "FL",
            "city": "ORLANDO",
            "zipcode": 32835,
            "enrollment2023": 3572,
            "enrollment2020": 2680,
            "enrollment_change": 892,
            "charter": false

        },
        {
            "id": 91,
            "name": "Calhoun Elementary School",
            "statecode": "GA",
            "city": "Calhoun",
            "zipcode": 30701,
            "enrollment2023": 878,
            "enrollment2020": 1979,
            "enrollment_change": -1101,
            "charter": false

        },
        {
            "id": 92,
            "name": "Gainesville Middle School East",
            "statecode": "GA",
            "city": "Gainesville",
            "zipcode": 30501,
            "enrollment2023": 841,
            "enrollment2020": 1790,
            "enrollment_change": -949,
            "charter": false

        },
        {
            "id": 93,
            "name": "Mill Creek High School",
            "statecode": "GA",
            "city": "Hoschton",
            "zipcode": 30548,
            "enrollment2023": 2839,
            "enrollment2020": 3651,
            "enrollment_change": -812,
            "charter": false

        },
        {
            "id": 94,
            "name": "Dalton High School",
            "statecode": "GA",
            "city": "Dalton",
            "zipcode": 30720,
            "enrollment2023": 1382,
            "enrollment2020": 2050,
            "enrollment_change": -668,
            "charter": false

        },
        {
            "id": 95,
            "name": "Godley Station School",
            "statecode": "GA",
            "city": "Savannah",
            "zipcode": 31407,
            "enrollment2023": 1135,
            "enrollment2020": 1693,
            "enrollment_change": -558,
            "charter": false

        },
        {
            "id": 96,
            "name": "Gwinnett Online Campus",
            "statecode": "GA",
            "city": "Lawrenceville",
            "zipcode": 30043,
            "enrollment2023": 2252,
            "enrollment2020": 506,
            "enrollment_change": 1746,
            "charter": false

        },
        {
            "id": 97,
            "name": "Georgia Connections Academy",
            "statecode": "GA",
            "city": "Duluth",
            "zipcode": 30097,
            "enrollment2023": 6373,
            "enrollment2020": 4640,
            "enrollment_change": 1733,
            "charter": true

        },
        {
            "id": 98,
            "name": "Appling County Elementary School",
            "statecode": "GA",
            "city": "Baxley",
            "zipcode": 31513,
            "enrollment2023": 1189,
            "enrollment2020": 489,
            "enrollment_change": 700,
            "charter": false

        },
        {
            "id": 99,
            "name": "Eddie White Middle School",
            "statecode": "GA",
            "city": "Hampton",
            "zipcode": 30228,
            "enrollment2023": 1438,
            "enrollment2020": 817,
            "enrollment_change": 621,
            "charter": false

        },
        {
            "id": 100,
            "name": "Osborne High School",
            "statecode": "GA",
            "city": "Marietta",
            "zipcode": 30060,
            "enrollment2023": 2772,
            "enrollment2020": 2180,
            "enrollment_change": 592,
            "charter": false

        },
        {
            "id": 101,
            "name": "REPLACE WITH ACTUAL SCHOOL",
            "statecode": "GA",
            "city": "REPLACE WITH ACTUAL CITY",
            "zipcode": 12345,
            "enrollment2023": 42,
            "enrollment2020": 42,
            "enrollment_change": 0,
            "charter": true

        },
        {
            "id": 102,
            "name": "REPLACE WITH ACTUAL SCHOOL",
            "statecode": "GA",
            "city": "REPLACE WITH ACTUAL CITY",
            "zipcode": 12345,
            "enrollment2023": 42,
            "enrollment2020": 42,
            "enrollment_change": 0,
            "charter": true

        },
        {
            "id": 103,
            "name": "REPLACE WITH ACTUAL SCHOOL",
            "statecode": "GA",
            "city": "REPLACE WITH ACTUAL CITY",
            "zipcode": 12345,
            "enrollment2023": 42,
            "enrollment2020": 42,
            "enrollment_change": 0,
            "charter": true

        },
        {
            "id": 104,
            "name": "REPLACE WITH ACTUAL SCHOOL",
            "statecode": "HI",
            "city": "REPLACE WITH ACTUAL CITY",
            "zipcode": 12345,
            "enrollment2023": 42,
            "enrollment2020": 42,
            "enrollment_change": 0,
            "charter": true

        },
        {
            "id": 105,
            "name": "REPLACE WITH ACTUAL SCHOOL",
            "statecode": "HI",
            "city": "REPLACE WITH ACTUAL CITY",
            "zipcode": 12345,
            "enrollment2023": 42,
            "enrollment2020": 42,
            "enrollment_change": 0,
            "charter": true

        },
        {
            "id": 106,
            "name": "REPLACE WITH ACTUAL SCHOOL",
            "statecode": "HI",
            "city": "REPLACE WITH ACTUAL CITY",
            "zipcode": 12345,
            "enrollment2023": 42,
            "enrollment2020": 42,
            "enrollment_change": 0,
            "charter": true

        },
        {
            "id": 107,
            "name": "REPLACE WITH ACTUAL SCHOOL",
            "statecode": "HI",
            "city": "REPLACE WITH ACTUAL CITY",
            "zipcode": 12345,
            "enrollment2023": 42,
            "enrollment2020": 42,
            "enrollment_change": 0,
            "charter": true

        },
        {
            "id": 108,
            "name": "REPLACE WITH ACTUAL SCHOOL",
            "statecode": "HI",
            "city": "REPLACE WITH ACTUAL CITY",
            "zipcode": 12345,
            "enrollment2023": 42,
            "enrollment2020": 42,
            "enrollment_change": 0,
            "charter": true

        },
        {
            "id": 109,
            "name": "REPLACE WITH ACTUAL SCHOOL",
            "statecode": "HI",
            "city": "REPLACE WITH ACTUAL CITY",
            "zipcode": 12345,
            "enrollment2023": 42,
            "enrollment2020": 42,
            "enrollment_change": 0,
            "charter": true

        },
        {
            "id": 110,
            "name": "REPLACE WITH ACTUAL SCHOOL",
            "statecode": "HI",
            "city": "REPLACE WITH ACTUAL CITY",
            "zipcode": 12345,
            "enrollment2023": 42,
            "enrollment2020": 42,
            "enrollment_change": 0,
            "charter": true

        },
        {
            "id": 101,
            "name": "REPLACE WITH ACTUAL SCHOOL",
            "statecode": "GA",
            "city": "REPLACE WITH ACTUAL CITY",
            "zipcode": 12345,
            "enrollment2023": 42,
            "enrollment2020": 42,
            "enrollment_change": 0,
            "charter": true

        },
        {
            "id": 102,
            "name": "REPLACE WITH ACTUAL SCHOOL",
            "statecode": "GA",
            "city": "REPLACE WITH ACTUAL CITY",
            "zipcode": 12345,
            "enrollment2023": 42,
            "enrollment2020": 42,
            "enrollment_change": 0,
            "charter": true

        },
        {
            "id": 103,
            "name": "REPLACE WITH ACTUAL SCHOOL",
            "statecode": "GA",
            "city": "REPLACE WITH ACTUAL CITY",
            "zipcode": 12345,
            "enrollment2023": 42,
            "enrollment2020": 42,
            "enrollment_change": 0,
            "charter": true

        },
        {
            "id": 104,
            "name": "REPLACE WITH ACTUAL SCHOOL",
            "statecode": "HI",
            "city": "REPLACE WITH ACTUAL CITY",
            "zipcode": 12345,
            "enrollment2023": 42,
            "enrollment2020": 42,
            "enrollment_change": 0,
            "charter": true

        },
        {
            "id": 105,
            "name": "REPLACE WITH ACTUAL SCHOOL",
            "statecode": "HI",
            "city": "REPLACE WITH ACTUAL CITY",
            "zipcode": 12345,
            "enrollment2023": 42,
            "enrollment2020": 42,
            "enrollment_change": 0,
            "charter": true

        },
        {
            "id": 106,
            "name": "REPLACE WITH ACTUAL SCHOOL",
            "statecode": "HI",
            "city": "REPLACE WITH ACTUAL CITY",
            "zipcode": 12345,
            "enrollment2023": 42,
            "enrollment2020": 42,
            "enrollment_change": 0,
            "charter": true

        },
        {
            "id": 107,
            "name": "REPLACE WITH ACTUAL SCHOOL",
            "statecode": "HI",
            "city": "REPLACE WITH ACTUAL CITY",
            "zipcode": 12345,
            "enrollment2023": 42,
            "enrollment2020": 42,
            "enrollment_change": 0,
            "charter": true

        },
        {
            "id": 108,
            "name": "REPLACE WITH ACTUAL SCHOOL",
            "statecode": "HI",
            "city": "REPLACE WITH ACTUAL CITY",
            "zipcode": 12345,
            "enrollment2023": 42,
            "enrollment2020": 42,
            "enrollment_change": 0,
            "charter": true

        },
        {
            "id": 109,
            "name": "REPLACE WITH ACTUAL SCHOOL",
            "statecode": "HI",
            "city": "REPLACE WITH ACTUAL CITY",
            "zipcode": 12345,
            "enrollment2023": 42,
            "enrollment2020": 42,
            "enrollment_change": 0,
            "charter": true

        },
        {
            "id": 110,
            "name": "REPLACE WITH ACTUAL SCHOOL",
            "statecode": "HI",
            "city": "REPLACE WITH ACTUAL CITY",
            "zipcode": 12345,
            "enrollment2023": 42,
            "enrollment2020": 42,
            "enrollment_change": 0,
            "charter": true

        },
        {
            "id": 101,
            "name": "REPLACE WITH ACTUAL SCHOOL",
            "statecode": "GA",
            "city": "REPLACE WITH ACTUAL CITY",
            "zipcode": 12345,
            "enrollment2023": 42,
            "enrollment2020": 42,
            "enrollment_change": 0,
            "charter": true

        },
        {
            "id": 102,
            "name": "REPLACE WITH ACTUAL SCHOOL",
            "statecode": "GA",
            "city": "REPLACE WITH ACTUAL CITY",
            "zipcode": 12345,
            "enrollment2023": 42,
            "enrollment2020": 42,
            "enrollment_change": 0,
            "charter": true

        },
        {
            "id": 103,
            "name": "REPLACE WITH ACTUAL SCHOOL",
            "statecode": "GA",
            "city": "REPLACE WITH ACTUAL CITY",
            "zipcode": 12345,
            "enrollment2023": 42,
            "enrollment2020": 42,
            "enrollment_change": 0,
            "charter": true

        },
        {
            "id": 104,
            "name": "REPLACE WITH ACTUAL SCHOOL",
            "statecode": "HI",
            "city": "REPLACE WITH ACTUAL CITY",
            "zipcode": 12345,
            "enrollment2023": 42,
            "enrollment2020": 42,
            "enrollment_change": 0,
            "charter": true

        },
        {
            "id": 105,
            "name": "REPLACE WITH ACTUAL SCHOOL",
            "statecode": "HI",
            "city": "REPLACE WITH ACTUAL CITY",
            "zipcode": 12345,
            "enrollment2023": 42,
            "enrollment2020": 42,
            "enrollment_change": 0,
            "charter": true

        },
        {
            "id": 106,
            "name": "REPLACE WITH ACTUAL SCHOOL",
            "statecode": "HI",
            "city": "REPLACE WITH ACTUAL CITY",
            "zipcode": 12345,
            "enrollment2023": 42,
            "enrollment2020": 42,
            "enrollment_change": 0,
            "charter": true

        },
        {
            "id": 107,
            "name": "REPLACE WITH ACTUAL SCHOOL",
            "statecode": "HI",
            "city": "REPLACE WITH ACTUAL CITY",
            "zipcode": 12345,
            "enrollment2023": 42,
            "enrollment2020": 42,
            "enrollment_change": 0,
            "charter": true

        },
        {
            "id": 108,
            "name": "REPLACE WITH ACTUAL SCHOOL",
            "statecode": "HI",
            "city": "REPLACE WITH ACTUAL CITY",
            "zipcode": 12345,
            "enrollment2023": 42,
            "enrollment2020": 42,
            "enrollment_change": 0,
            "charter": true

        },
        {
            "id": 109,
            "name": "REPLACE WITH ACTUAL SCHOOL",
            "statecode": "HI",
            "city": "REPLACE WITH ACTUAL CITY",
            "zipcode": 12345,
            "enrollment2023": 42,
            "enrollment2020": 42,
            "enrollment_change": 0,
            "charter": true

        },
        {
            "id": 110,
            "name": "REPLACE WITH ACTUAL SCHOOL",
            "statecode": "HI",
            "city": "REPLACE WITH ACTUAL CITY",
            "zipcode": 12345,
            "enrollment2023": 42,
            "enrollment2020": 42,
            "enrollment_change": 0,
            "charter": true

        },
        {
            "id": 101,
            "name": "REPLACE WITH ACTUAL SCHOOL",
            "statecode": "GA",
            "city": "REPLACE WITH ACTUAL CITY",
            "zipcode": 12345,
            "enrollment2023": 42,
            "enrollment2020": 42,
            "enrollment_change": 0,
            "charter": true

        },
        {
            "id": 102,
            "name": "REPLACE WITH ACTUAL SCHOOL",
            "statecode": "GA",
            "city": "REPLACE WITH ACTUAL CITY",
            "zipcode": 12345,
            "enrollment2023": 42,
            "enrollment2020": 42,
            "enrollment_change": 0,
            "charter": true

        },
        {
            "id": 103,
            "name": "REPLACE WITH ACTUAL SCHOOL",
            "statecode": "GA",
            "city": "REPLACE WITH ACTUAL CITY",
            "zipcode": 12345,
            "enrollment2023": 42,
            "enrollment2020": 42,
            "enrollment_change": 0,
            "charter": true

        },
        {
            "id": 104,
            "name": "REPLACE WITH ACTUAL SCHOOL",
            "statecode": "HI",
            "city": "REPLACE WITH ACTUAL CITY",
            "zipcode": 12345,
            "enrollment2023": 42,
            "enrollment2020": 42,
            "enrollment_change": 0,
            "charter": true

        },
        {
            "id": 105,
            "name": "REPLACE WITH ACTUAL SCHOOL",
            "statecode": "HI",
            "city": "REPLACE WITH ACTUAL CITY",
            "zipcode": 12345,
            "enrollment2023": 42,
            "enrollment2020": 42,
            "enrollment_change": 0,
            "charter": true

        },
        {
            "id": 106,
            "name": "REPLACE WITH ACTUAL SCHOOL",
            "statecode": "HI",
            "city": "REPLACE WITH ACTUAL CITY",
            "zipcode": 12345,
            "enrollment2023": 42,
            "enrollment2020": 42,
            "enrollment_change": 0,
            "charter": true

        },
        {
            "id": 107,
            "name": "REPLACE WITH ACTUAL SCHOOL",
            "statecode": "HI",
            "city": "REPLACE WITH ACTUAL CITY",
            "zipcode": 12345,
            "enrollment2023": 42,
            "enrollment2020": 42,
            "enrollment_change": 0,
            "charter": true

        },
        {
            "id": 108,
            "name": "REPLACE WITH ACTUAL SCHOOL",
            "statecode": "HI",
            "city": "REPLACE WITH ACTUAL CITY",
            "zipcode": 12345,
            "enrollment2023": 42,
            "enrollment2020": 42,
            "enrollment_change": 0,
            "charter": true

        },
        {
            "id": 109,
            "name": "REPLACE WITH ACTUAL SCHOOL",
            "statecode": "HI",
            "city": "REPLACE WITH ACTUAL CITY",
            "zipcode": 12345,
            "enrollment2023": 42,
            "enrollment2020": 42,
            "enrollment_change": 0,
            "charter": true

        },
        {
            "id": 110,
            "name": "REPLACE WITH ACTUAL SCHOOL",
            "statecode": "HI",
            "city": "REPLACE WITH ACTUAL CITY",
            "zipcode": 12345,
            "enrollment2023": 42,
            "enrollment2020": 42,
            "enrollment_change": 0,
            "charter": true

        },
        {
            "id": 101,
            "name": "REPLACE WITH ACTUAL SCHOOL",
            "statecode": "GA",
            "city": "REPLACE WITH ACTUAL CITY",
            "zipcode": 12345,
            "enrollment2023": 42,
            "enrollment2020": 42,
            "enrollment_change": 0,
            "charter": true

        },
        {
            "id": 102,
            "name": "REPLACE WITH ACTUAL SCHOOL",
            "statecode": "GA",
            "city": "REPLACE WITH ACTUAL CITY",
            "zipcode": 12345,
            "enrollment2023": 42,
            "enrollment2020": 42,
            "enrollment_change": 0,
            "charter": true

        },
        {
            "id": 103,
            "name": "REPLACE WITH ACTUAL SCHOOL",
            "statecode": "GA",
            "city": "REPLACE WITH ACTUAL CITY",
            "zipcode": 12345,
            "enrollment2023": 42,
            "enrollment2020": 42,
            "enrollment_change": 0,
            "charter": true

        },
        {
            "id": 104,
            "name": "REPLACE WITH ACTUAL SCHOOL",
            "statecode": "HI",
            "city": "REPLACE WITH ACTUAL CITY",
            "zipcode": 12345,
            "enrollment2023": 42,
            "enrollment2020": 42,
            "enrollment_change": 0,
            "charter": true

        },
        {
            "id": 105,
            "name": "REPLACE WITH ACTUAL SCHOOL",
            "statecode": "HI",
            "city": "REPLACE WITH ACTUAL CITY",
            "zipcode": 12345,
            "enrollment2023": 42,
            "enrollment2020": 42,
            "enrollment_change": 0,
            "charter": true

        },
        {
            "id": 106,
            "name": "REPLACE WITH ACTUAL SCHOOL",
            "statecode": "HI",
            "city": "REPLACE WITH ACTUAL CITY",
            "zipcode": 12345,
            "enrollment2023": 42,
            "enrollment2020": 42,
            "enrollment_change": 0,
            "charter": true

        },
        {
            "id": 107,
            "name": "REPLACE WITH ACTUAL SCHOOL",
            "statecode": "HI",
            "city": "REPLACE WITH ACTUAL CITY",
            "zipcode": 12345,
            "enrollment2023": 42,
            "enrollment2020": 42,
            "enrollment_change": 0,
            "charter": true

        },
        {
            "id": 108,
            "name": "REPLACE WITH ACTUAL SCHOOL",
            "statecode": "HI",
            "city": "REPLACE WITH ACTUAL CITY",
            "zipcode": 12345,
            "enrollment2023": 42,
            "enrollment2020": 42,
            "enrollment_change": 0,
            "charter": true

        },
        {
            "id": 109,
            "name": "REPLACE WITH ACTUAL SCHOOL",
            "statecode": "HI",
            "city": "REPLACE WITH ACTUAL CITY",
            "zipcode": 12345,
            "enrollment2023": 42,
            "enrollment2020": 42,
            "enrollment_change": 0,
            "charter": true

        },
        {
            "id": 110,
            "name": "REPLACE WITH ACTUAL SCHOOL",
            "statecode": "HI",
            "city": "REPLACE WITH ACTUAL CITY",
            "zipcode": 12345,
            "enrollment2023": 42,
            "enrollment2020": 42,
            "enrollment_change": 0,
            "charter": true

        }
    ]
}